[{"OBJECT_NAME":"AFR-1","OBJECT_ID":"2023-084AJ","EPOCH":"2026-03-09T23:02:07.499328","MEAN_MOTION":15.27543824,"ECCENTRICITY":0.00099838,"INCLINATION":97.6099,"RA_OF_ASC_NODE":203.4313,"ARG_OF_PERICENTER":334.9676,"MEAN_ANOMALY":25.1077,"EPHEMERIS_TYPE":0,"CLASSIFICATION_TYPE":"U","NORAD_CAT_ID":56964,"ELEMENT_SET_NO":999,"REV_AT_EPOCH":15207,"BSTAR":0.00024843733,"MEAN_MOTION_DOT":6.624e-5,"MEAN_MOTION_DDOT":0},{"OBJECT_NAME":"STARLINK-35673","OBJECT_ID":"2025-263H","EPOCH":"2026-03-09T04:39:26.598240","MEAN_MOTION":15.27600433,"ECCENTRICITY":0.00016278,"INCLINATION":43.0002,"RA_OF_ASC_NODE":353.4564,"ARG_OF_PERICENTER":281.1193,"MEAN_ANOMALY":78.9475,"EPHEMERIS_TYPE":0,"CLASSIFICATION_TYPE":"U","NORAD_CAT_ID":66492,"ELEMENT_SET_NO":999,"REV_AT_EPOCH":1882,"BSTAR":0.0014748594,"MEAN_MOTION_DOT":0.00040572,"MEAN_MOTION_DDOT":0}]
